OBJECT_NAME,OBJECT_ID,EPOCH,MEAN_MOTION,ECCENTRICITY,INCLINATION,RA_OF_ASC_NODE,ARG_OF_PERICENTER,MEAN_ANOMALY,EPHEMERIS_TYPE,CLASSIFICATION_TYPE,NORAD_CAT_ID,ELEMENT_SET_NO,REV_AT_EPOCH,BSTAR,MEAN_MOTION_DOT,MEAN_MOTION_DDOT
KUIPER-00519,2026-095AC,2026-06-11T14:00:01.999872,15.35300437,.00002793,51.8838,269.2579,295.6611,299.8341,0,U,68890,999,430,.53303846E-3,.18215E-3,0
KUIPER-00521,2026-095AD,2026-06-11T14:19:39.698400,15.38527932,.00009295,51.8843,269.0978,324.1515,35.9410,0,U,68891,999,687,.87998279E-3,.33749E-3,0
KUIPER-00524,2026-095AE,2026-06-11T14:00:01.999872,15.28365630,.00009931,51.8876,269.5020,334.3413,121.5175,0,U,68892,999,362,-.15363276E-3,-.4655E-4,0
VIASAT-3 F3,2026-096A,2026-06-11T15:42:55.223712,1.10064839,.08531584,1.4488,279.7500,180.7780,161.4284,0,U,68893,999,54,0,-.79E-6,0
STARLINK-37527,2026-097A,2026-06-11T12:39:33.740640,15.33448084,.00016167,97.2844,358.0433,83.8760,276.2667,0,U,68895,999,661,.36660861E-3,.1178E-3,0
STARLINK-37432,2026-097B,2026-06-11T11:52:34.608000,15.33459743,.00021545,97.2840,358.0893,83.4182,276.7306,0,U,68896,999,661,.54752182E-3,.17651E-3,0
STARLINK-37534,2026-097C,2026-06-11T13:03:03.169152,15.33445694,.00017012,97.2847,358.1730,95.4904,264.6533,0,U,68897,999,662,.6453779E-3,.20818E-3,0
STARLINK-37386,2026-097D,2026-06-11T12:16:04.132416,15.33423859,.00016462,97.2843,358.0646,92.9861,267.1570,0,U,68898,999,661,.66522402E-3,.21448E-3,0
STARLINK-37514,2026-097E,2026-06-11T14:01:45.686784,15.33436003,.00013495,97.2842,358.1191,91.4541,268.6857,0,U,68899,999,662,.27545533E-3,.8826E-4,0
STARLINK-36961,2026-097F,2026-06-11T12:04:19.686432,15.33447211,.00019072,97.2842,358.0765,78.5052,281.6405,0,U,68900,999,661,.7104103E-3,.22932E-3,0
STARLINK-37360,2026-097G,2026-06-11T12:51:18.407808,15.33447175,.00010379,97.2845,358.1859,111.6250,248.5103,0,U,68901,999,662,.72183939E-3,.23302E-3,0
STARLINK-37564,2026-097H,2026-06-11T13:14:48.379776,15.33461872,.00015795,97.2850,358.1625,96.9378,263.2045,0,U,68902,999,662,.32444824E-3,.10419E-3,0
STARLINK-37567,2026-097J,2026-06-11T12:12:09.296352,15.33453999,.00015704,97.2845,358.0698,89.6951,270.4472,0,U,68903,999,661,.52221671E-3,.16827E-3,0
STARLINK-37528,2026-097K,2026-06-11T13:10:53.181696,15.33439147,.00016639,97.2847,358.1665,91.8985,268.2449,0,U,68904,999,662,.38605576E-3,.12407E-3,0
STARLINK-37494,2026-097L,2026-06-11T12:00:24.547968,15.33451957,.00017105,97.2839,358.0814,77.5219,282.6215,0,U,68905,999,661,.77955702E-3,.25182E-3,0
STARLINK-37541,2026-097M,2026-06-11T12:35:38.825088,15.33445927,.00015659,97.2843,358.0464,96.5370,263.6051,0,U,68906,999,661,.33620894E-3,.10795E-3,0
STARLINK-37551,2026-097N,2026-06-11T14:05:41.881056,15.33440768,.00016733,97.2847,358.1142,94.2448,265.8986,0,U,68907,999,662,.22582303E-3,.7221E-4,0
STARLINK-37566,2026-097P,2026-06-11T12:23:53.966976,15.33450442,.00016578,97.2848,358.0578,91.1657,268.9775,0,U,68908,999,661,.41448884E-3,.13332E-3,0
STARLINK-37544,2026-097Q,2026-06-11T12:20:00.173760,15.33462531,.00019423,97.2845,358.0620,70.3386,289.8066,0,U,68909,999,661,.62111066E-3,.20042E-3,0
STARLINK-37493,2026-097R,2026-06-11T12:08:14.557920,15.33446284,.0001645,97.2842,358.0738,80.8943,279.2486,0,U,68910,999,661,.7115948E-3,.22969E-3,0
STARLINK-37543,2026-097S,2026-06-11T11:48:39.762432,15.33457798,.0001751,97.2845,358.0921,86.2148,273.9295,0,U,68911,999,661,.55233124E-3,.17806E-3,0
STARLINK-37477,2026-097T,2026-06-11T13:06:58.082112,15.33452321,.00018056,97.2842,358.1701,93.3590,266.7859,0,U,68912,999,662,.69780536E-3,.22526E-3,0
STARLINK-37504,2026-097U,2026-06-11T11:56:29.850144,15.33448784,.00021746,97.2839,358.0840,79.8756,280.2732,0,U,68913,999,661,.78456131E-3,.25343E-3,0
STARLINK-37540,2026-097V,2026-06-11T13:18:43.033536,15.33444986,.00017711,97.2850,358.1581,91.6616,268.4830,0,U,68914,999,662,.64929456E-3,.20945E-3,0
STARLINK-37516,2026-097W,2026-06-11T12:47:23.665920,15.33444074,.00018729,97.2849,358.1906,96.1484,263.9972,0,U,68915,999,662,.72108057E-3,.23276E-3,0
STARLINK-37507,2026-097X,2026-06-11T12:59:08.142144,15.33457137,.00018036,97.2844,358.1795,95.6575,264.4873,0,U,68916,999,662,.51681426E-3,.16653E-3,0
STARLINK-37542,2026-097Y,2026-06-11T12:55:13.035648,15.33429766,.00011971,97.2844,358.1813,82.0178,278.1201,0,U,68917,999,662,.96045333E-4,.3025E-4,0
STARLINK-37529,2026-097Z,2026-06-11T12:43:28.372800,15.33451403,.00012753,97.2849,358.1921,90.6588,269.4801,0,U,68918,999,662,.23925791E-3,.7658E-4,0
KUIPER-00370,2026-098A,2026-06-11T12:59:22.210656,15.28199817,.00145736,51.8751,96.1208,133.4981,226.7216,0,U,68919,999,646,.60094708E-3,.1648E-3,0
KUIPER-00380,2026-098B,2026-06-11T12:57:39.765312,15.32190606,.00080213,51.8756,95.3912,117.8516,242.3282,0,U,68920,999,647,.5875676E-3,.18222E-3,0
KUIPER-00386,2026-098C,2026-06-11T02:12:20.499552,15.35895071,.00028343,51.8728,96.9021,151.2620,208.8523,0,U,68921,999,641,.86456179E-3,.3041E-3,0
KUIPER-00388,2026-098D,2026-06-11T02:28:53.320224,15.28109572,.00226277,51.8750,98.4335,122.3027,238.0152,0,U,68922,999,639,.10159824E-2,.28199E-3,0
KUIPER-00405,2026-098E,2026-06-11T12:14:11.854752,15.30278845,.0014319,51.8743,95.9354,132.0782,228.1422,0,U,68923,999,646,.54544844E-3,.15924E-3,0
KUIPER-00408,2026-098F,2026-06-11T12:57:22.997664,15.28314841,.00155449,51.8771,96.1223,126.6069,233.6346,0,U,68924,999,646,.4734984E-4,.967E-5,0
KUIPER-00409,2026-098G,2026-06-11T01:34:53.034240,15.32993402,.00074972,51.8745,97.4699,125.1362,235.0326,0,U,68925,999,640,-.12409763E-2,-.4034E-3,0
KUIPER-00410,2026-098H,2026-06-10T13:21:41.204160,15.28149281,.00145038,51.8763,100.7819,126.3380,233.8943,0,U,68926,999,631,.47316184E-3,.12872E-3,0
KUIPER-00412,2026-098J,2026-06-11T12:42:13.267008,15.36753826,.00021735,51.8776,94.6048,171.6448,188.4575,0,U,68927,999,648,.62552261E-3,.22492E-3,0
KUIPER-00413,2026-098K,2026-06-11T02:34:22.745280,15.28328465,.00263543,51.8744,98.4581,137.7549,222.5470,0,U,68928,999,639,.92233598E-3,.25801E-3,0
KUIPER-00414,2026-098L,2026-06-11T14:00:01.999872,15.06041755,.00228185,51.8885,97.0916,119.7964,209.4262,0,U,68929,999,562,-.34283887E-2,-.50851E-3,0
KUIPER-00415,2026-098M,2026-06-11T14:00:01.999872,15.31502497,.00118244,51.8788,95.2573,115.0220,95.0756,0,U,68930,999,589,.54881233E-3,.16642E-3,0
KUIPER-00416,2026-098N,2026-06-11T12:33:28.348128,15.37000672,.00011491,51.8744,94.5525,132.2439,227.8645,0,U,68931,999,648,.78840063E-3,.28702E-3,0
KUIPER-00420,2026-098P,2026-06-11T02:14:39.031584,15.35844168,.00038233,51.8789,96.9302,129.8038,230.3285,0,U,68932,999,641,.68536697E-3,.23969E-3,0
KUIPER-00421,2026-098Q,2026-06-11T03:07:34.552992,15.32395800,.00089963,51.8771,97.1650,107.7448,252.4519,0,U,68933,999,641,.80672841E-3,.25352E-3,0
KUIPER-00425,2026-098R,2026-06-11T14:00:01.999872,15.28423178,.00182899,51.8759,95.9172,132.9237,102.0589,0,U,68934,999,587,.40453933E-3,.11063E-3,0
KUIPER-00430,2026-098S,2026-06-11T13:10:32.057760,15.28748785,.00206563,51.8781,96.1870,130.3417,229.9375,0,U,68935,999,646,.75234648E-3,.21157E-3,0
KUIPER-00431,2026-098T,2026-06-11T00:56:47.921856,15.27928853,.00179116,51.8747,98.7592,124.8899,235.3771,0,U,68936,999,638,.60527085E-3,.16487E-3,0
KUIPER-00432,2026-098U,2026-06-11T02:38:35.938752,15.30188202,.00133691,51.8736,97.7535,123.0309,237.1961,0,U,68937,999,640,-.19119913E-3,-.6046E-4,0
KUIPER-00434,2026-098V,2026-06-11T02:53:34.859904,15.33564989,.00069306,51.8732,97.0830,112.4952,247.6768,0,U,68938,999,641,.58878571E-3,.19077E-3,0
KUIPER-00436,2026-098W,2026-06-11T13:06:33.758784,15.32501591,.00106719,51.8749,95.4307,124.9769,235.2219,0,U,68939,999,647,.85026147E-3,.26849E-3,0
KUIPER-00438,2026-098X,2026-06-11T02:56:43.251648,15.32939813,.00054035,51.8739,97.1015,132.4389,227.7054,0,U,68940,999,641,.79195971E-3,.25297E-3,0
KUIPER-00439,2026-098Y,2026-06-11T12:52:59.837088,15.32376457,.00070957,51.8778,95.3811,132.5082,227.6503,0,U,68941,999,647,.56079483E-3,.17473E-3,0
KUIPER-00440,2026-098Z,2026-06-11T12:14:36.940128,15.34065841,.00048883,51.8770,95.2143,147.4977,212.6310,0,U,68942,999,647,.58299205E-3,.19186E-3,0
KUIPER-00442,2026-098AA,2026-06-11T02:54:10.632096,15.34387134,.00061099,51.8777,97.1071,122.7377,237.4199,0,U,68943,999,641,.67171204E-3,.22407E-3,0
KUIPER-00446,2026-098AB,2026-06-11T12:16:05.170944,15.34313611,.00065578,51.8741,95.2062,121.5913,238.5714,0,U,68944,999,647,.61398831E-3,.20396E-3,0
KUIPER-00451,2026-098AC,2026-06-11T13:06:58.952160,15.27812057,.00128859,51.8794,96.1771,123.7444,236.4768,0,U,68945,999,646,.83609718E-3,.228E-3,0
KUIPER-00452,2026-098AD,2026-06-11T13:05:26.760768,15.36085729,.00036421,51.8750,94.6967,121.1849,238.9495,0,U,68946,999,648,.70108477E-3,.24722E-3,0
KUIPER-00453,2026-098AE,2026-06-11T12:41:31.801056,15.36792386,.00028197,51.8745,94.5891,157.5184,202.5926,0,U,68947,999,648,.1021636E-2,.37101E-3,0
KUIPER-00454,2026-098AF,2026-06-11T02:50:17.711520,15.26265319,.00171116,51.8759,98.5450,117.7854,242.4866,0,U,68948,999,639,.45510235E-3,.11676E-3,0
KUIPER-00455,2026-098AG,2026-06-11T01:02:28.369824,15.28136065,.00201358,51.8736,98.7854,125.1107,235.1767,0,U,68949,999,638,.42445951E-3,.11534E-3,0
KUIPER-00458,2026-098AH,2026-06-11T14:32:46.783392,15.35937318,.00040048,51.8770,94.3618,136.3453,223.7850,0,U,68950,999,649,.53357174E-3,.18618E-3,0
STARLINK-37258,2026-099A,2026-06-11T05:35:17.323296,15.34402549,.00010593,53.1595,189.4600,129.5508,230.5589,0,U,68951,999,635,.47187365E-3,.15601E-3,0
STARLINK-37308,2026-099B,2026-06-11T14:00:01.999872,15.34377225,.00012973,53.1589,187.8104,3.7329,145.2479,0,U,68952,999,602,.10385737E-2,.34851E-3,0
STARLINK-37337,2026-099C,2026-06-11T14:00:01.999872,15.35376301,.00008536,53.1593,187.8085,79.6419,71.1897,0,U,68953,999,602,.10970376E-2,.3805E-3,0
STARLINK-37301,2026-099D,2026-06-11T14:00:01.999872,15.34379252,.00011424,53.1594,187.7385,61.1600,122.6929,0,U,68954,999,602,.99858975E-3,.33491E-3,0
